NORAD_CAT_ID,OBJECT_NAME,OBJECT_TYPE,EPOCH,MEAN_MOTION,ECCENTRICITY,INCLINATION,RA_OF_ASC_NODE,ARG_OF_PERICENTER,MEAN_ANOMALY,BSTAR,MEAN_MOTION_DOT,MEAN_MOTION_DDOT,TLE_LINE0,TLE_LINE1,TLE_LINE2,SEMIMAJOR_AXIS,PERIOD,APOGEE,PERIGEE,DECAYED
51718.0,STARLINK-3546,PAYLOAD,2022-05-27 21:22:33,15.08834821,0.0001813,53.2163,52.2527,48.9828,311.1321,-2.0703e-05,-6.18e-06,0.0,0 STARLINK-3546,1 51718U 22016E   22147.89066166 -.00000618  00000-0 -20703-4 0  9994,2 51718  53.2163  52.2527 0001813  48.9828 311.1321 15.08834821 15940,6917.896,95.438,541.015,538.507,0.0
51718.0,STARLINK-3546,PAYLOAD,2022-05-28 06:00:02,15.088293900000002,0.0001759,53.2156,50.6409,42.4123,110.7767,0.002176,0.00034503,0.0,0 STARLINK-3546,1 51718U 22016E   22148.25002315  .00034503  00000-0  21760-2 0  9991,2 51718  53.2156  50.6409 0001759  42.4123 110.7767 15.08829390 15930,6917.913000000001,95.438,540.995,538.561,0.0
51718.0,STARLINK-3546,PAYLOAD,2022-05-28 14:00:01,15.08829541,0.0001515,53.2157,49.143,48.8647,115.8654,0.0033615,0.00053602,0.0,0 STARLINK-3546,1 51718U 22016E   22148.58334491  .00053602  00000-0  33615-2 0  9993,2 51718  53.2157  49.1430 0001515  48.8647 115.8654 15.08829541  1304,6917.9119999999975,95.438,540.825,538.729,0.0
51718.0,STARLINK-3546,PAYLOAD,2022-05-28 21:13:19,15.08845151,0.0001761,53.2163,47.7928,50.3626,309.7522,9.6917e-05,1.255e-05,0.0,0 STARLINK-3546,1 51718U 22016E   22148.88425086  .00001255  00000-0  96917-4 0  9990,2 51718  53.2163  47.7928 0001761  50.3626 309.7522 15.08845151 16023,6917.865,95.437,540.948,538.511,0.0
51718.0,STARLINK-3546,PAYLOAD,2022-05-29 14:00:01,15.08813248,0.0001618,53.2153,44.654,52.9222,146.6041,0.00029397,4.39e-05,0.0,0 STARLINK-3546,1 51718U 22016E   22149.58334491  .00004390  00000-0  29397-3 0  9997,2 51718  53.2153  44.6540 0001618  52.9222 146.6041 15.08813248 16137,6917.962,95.439,540.946,538.7080000000002,0.0
51718.0,STARLINK-3546,PAYLOAD,2022-05-29 21:04:07,15.08836439,0.0001693,53.2162,43.3324,53.1454,306.9694,-5.4432e-05,-1.154e-05,0.0,0 STARLINK-3546,1 51718U 22016E   22149.87786245 -.00001154  00000-0 -54432-4 0  9993,2 51718  53.2162  43.3324 0001693  53.1454 306.9694 15.08836439 16240,6917.891,95.438,540.927,538.585,0.0
51718.0,STARLINK-3546,PAYLOAD,2022-05-30 14:00:01,15.08800675,0.000173,53.2148,40.1651,56.6916,177.5387,0.0030747,0.00048933,0.0,0 STARLINK-3546,1 51718U 22016E   22150.58334491  .00048933  00000-0  30747-2 0  9990,2 51718  53.2148  40.1651 0001730  56.6916 177.5387 15.08800675  1300,6918.001,95.44,541.062,538.669,0.0
51718.0,STARLINK-3546,PAYLOAD,2022-05-30 20:54:55,15.08832459,0.0001869,53.2165,38.8721,53.5368,306.5796,-8.5164e-05,-1.643e-05,0.0,0 STARLINK-3546,1 51718U 22016E   22150.87147277 -.00001643  00000-0 -85164-4 0  9990,2 51718  53.2165  38.8721 0001869  53.5368 306.5796 15.08832459 16399,6917.903,95.438,541.061,538.475,0.0
51718.0,STARLINK-3546,PAYLOAD,2022-05-30 22:00:00,15.08835408,0.0001869,53.2148,38.6704,54.0735,191.7247,-0.00079272,-0.00012881,0.0,0 STARLINK-3546,1 51718U 22016E   22150.91667824 -.00012881  00000-0 -79272-3 0  9998,2 51718  53.2148  38.6704 0001869  54.0735 191.7247 15.08835408 16339,6917.894,95.438,541.052,538.466,0.0
51718.0,STARLINK-3546,PAYLOAD,2022-05-31 06:00:02,15.08842989,0.0001908,53.2145,37.1739,51.3936,206.0469,-0.00041785,-6.933e-05,0.0,0 STARLINK-3546,1 51718U 22016E   22151.25002315 -.00006933  00000-0 -41785-3 0  9993,2 51718  53.2145  37.1739 0001908  51.3936 206.0469 15.08842989  1304,6917.871,95.437,541.056,538.4159999999998,0.0
51718.0,STARLINK-3546,PAYLOAD,2022-05-31 14:00:01,15.0882142,0.0001809,53.2145,35.6759,58.1574,210.8225,0.0030401,0.00048403,0.0,0 STARLINK-3546,1 51718U 22016E   22151.58334491  .00048403  00000-0  30401-2 0  9990,2 51718  53.2145  35.6759 0001809  58.1574 210.8225 15.08821420 16432,6917.937,95.439,541.054,538.5509999999998,0.0
51718.0,STARLINK-3546,PAYLOAD,2022-05-31 22:00:00,15.08858039,0.000195,53.2145,34.1811,54.5464,226.0315,-0.00069686,-0.00011367,0.0,0 STARLINK-3546,1 51718U 22016E   22151.91667824 -.00011367  00000-0 -69686-3 0  9995,2 51718  53.2145  34.1811 0001950  54.5464 226.0315 15.08858039  1305,6917.825,95.436,541.039,538.341,0.0
51718.0,STARLINK-3546,PAYLOAD,2022-06-01 06:00:00,15.08874822,0.0001897,53.2144,32.6845,50.9842,241.2012,-0.0034484,-0.00054805,0.0,0 STARLINK-3546,1 51718U 22016E   22152.25001157 -.00054805  00000-0 -34484-2 0  9995,2 51718  53.2144  32.6845 0001897  50.9842 241.2012 15.08874822 16536,6917.774,95.435,540.951,538.327,0.0
51718.0,STARLINK-3546,PAYLOAD,2022-06-01 20:00:01,15.08869858,0.0001847,53.2148,30.0653,54.4402,168.0514,-0.0039513,-0.00062678,0.0,0 STARLINK-3546,1 51718U 22016E   22152.83334491 -.00062678  00000-0 -39513-2 0  9994,2 51718  53.2148  30.0653 0001847  54.4402 168.0514 15.08869858 16621,6917.7890000000025,95.436,540.932,538.376,0.0
51718.0,STARLINK-3546,PAYLOAD,2022-06-03 02:48:48,15.08844663,0.0001921,53.2163,24.3007,55.4914,304.6259,-6.2951e-05,-1.29e-05,0.0,0 STARLINK-3546,1 51718U 22016E   22154.11722797 -.00001290  00000-0 -62951-4 0  9994,2 51718  53.2163  24.3007 0001921  55.4914 304.6259 15.08844663 16811,6917.866,95.437,541.06,538.4019999999998,0.0
51718.0,STARLINK-3546,PAYLOAD,2022-06-03 21:53:26,15.08831367,0.0001698,53.2163,20.7319,53.4835,306.6313,-3.1535e-05,-7.9e-06,0.0,0 STARLINK-3546,1 51718U 22016E   22154.91211354 -.00000790  00000-0 -31535-4 0  9992,2 51718  53.2163  20.7319 0001698  53.4835 306.6313 15.08831367 17000,6917.906999999997,95.438,540.946,538.597,0.0
51718.0,STARLINK-3546,PAYLOAD,2022-06-04 07:25:45,15.08845607,0.0001799,53.2163,18.9476,54.4853,305.6307,-0.00015368,-2.734e-05,0.0,0 STARLINK-3546,1 51718U 22016E   22155.30954959 -.00002734  00000-0 -15368-3 0  9996,2 51718  53.2163  18.9476 0001799  54.4853 305.6307 15.08845607 16997,6917.863,95.437,540.9730000000002,538.484,0.0
51718.0,STARLINK-3546,PAYLOAD,2022-06-04 13:47:17,15.08833965,0.00018,53.2161,17.7578,53.2652,306.8506,4.5463e-05,4.35e-06,0.0,0 STARLINK-3546,1 51718U 22016E   22155.57451150  .00000435  00000-0  45463-4 0  9994,2 51718  53.2161  17.7578 0001800  53.2652 306.8506 15.08833965 17104,6917.899,95.438,541.009,538.519,0.0
51718.0,STARLINK-3546,PAYLOAD,2022-06-05 22:00:00,15.08835006,0.0001794,53.2153,11.7342,52.81100000000001,41.7124,-5.7537e-05,-1.204e-05,0.0,0 STARLINK-3546,1 51718U 22016E   22156.91667824 -.00001204  00000-0 -57537-4 0  9992,2 51718  53.2153  11.7342 0001794  52.8110  41.7124 15.08835006 17248,6917.896,95.438,541.002,538.52,0.0
51718.0,STARLINK-3546,PAYLOAD,2022-06-06 14:00:01,15.08854013,0.0001720999999999,53.2152,8.7395,61.5494,56.1624,-0.0015421,-0.00024756,0.0,0 STARLINK-3546,1 51718U 22016E   22157.58334491 -.00024756  00000-0 -15421-2 0  9998,2 51718  53.2152   8.7395 0001721  61.5494  56.1624 15.08854013  1307,6917.8380000000025,95.437,540.893,538.512,0.0
51718.0,STARLINK-3546,PAYLOAD,2022-06-06 22:00:00,15.08819655,0.0001904,53.215,7.245,56.5508,72.7666,0.00049225,7.55e-05,0.0,0 STARLINK-3546,1 51718U 22016E   22157.91667824  .00007550  00000-0  49225-3 0  9995,2 51718  53.2150   7.2450 0001904  56.5508  72.7666 15.08819655  1307,6917.943,95.439,541.125,538.49,0.0
51718.0,STARLINK-3546,PAYLOAD,2022-06-07 06:00:00,15.08845193,0.0001826,53.2146,5.7476,57.9942,82.8964,-0.0016682,-0.00026744,0.0,0 STARLINK-3546,1 51718U 22016E   22158.25001157 -.00026744  00000-0 -16682-2 0  9992,2 51718  53.2146   5.7476 0001826  57.9942  82.8964 15.08845193 17444,6917.865,95.437,540.993,538.466,0.0
51718.0,STARLINK-3546,PAYLOAD,2022-06-07 14:00:01,15.088378699999998,0.0001814,53.2149,4.2504,63.9193,88.5592,0.00091644,0.00014326,0.0,0 STARLINK-3546,1 51718U 22016E   22158.58334491  .00014326  00000-0  91644-3 0  9991,2 51718  53.2149   4.2504 0001814  63.9193  88.5592 15.08837870  1306,6917.887,95.438,541.007,538.497,0.0
51718.0,STARLINK-3546,PAYLOAD,2022-06-07 22:00:00,15.08838716,0.0001923,53.2148,2.7559,56.5359,107.5494,0.00099625,0.00015602,0.0,0 STARLINK-3546,1 51718U 22016E   22158.91667824  .00015602  00000-0  99625-3 0  9992,2 51718  53.2148   2.7559 0001923  56.5359 107.5494 15.08838716 17547,6917.884,95.438,541.08,538.419,0.0
51718.0,STARLINK-3546,PAYLOAD,2022-06-08 14:00:01,15.08835811,0.0001747,53.2148,359.7613,61.9329,125.3432,0.00067709,0.00010503,0.0,0 STARLINK-3546,1 51718U 22016E   22159.58334491  .00010503  00000-0  67709-3 0  9990,2 51718  53.2148 359.7613 0001747  61.9329 125.3432 15.08835811 17648,6917.893,95.438,540.967,538.55,0.0
51718.0,STARLINK-3546,PAYLOAD,2022-06-08 22:00:01,15.08829416,0.0001851,53.2148,358.2666,53.8436,145.0926,-0.00091889,-0.00014878,0.0,0 STARLINK-3546,1 51718U 22016E   22159.91668981 -.00014878  00000-0 -91889-3 0  9998,2 51718  53.2148 358.2666 0001851  53.8436 145.0926 15.08829416  1302,6917.913000000001,95.438,541.058,538.497,0.0
51718.0,STARLINK-3546,PAYLOAD,2022-06-09 06:00:00,15.088277,0.0001705,53.2147,356.7688,54.8486,155.5977,-0.0013872,-0.0002229,0.0,0 STARLINK-3546,1 51718U 22016E   22160.25001157 -.00022290  00000-0 -13872-2 0  9995,2 51718  53.2147 356.7688 0001705  54.8486 155.5977 15.08827700 17743,6917.918000000002,95.438,540.962,538.6030000000002,0.0
51718.0,STARLINK-3546,PAYLOAD,2022-06-09 14:00:01,15.08829684,0.0001725,53.215,355.2721,60.1373,161.8769,0.00031842,4.782e-05,0.0,0 STARLINK-3546,1 51718U 22016E   22160.58334491  .00004782  00000-0  31842-3 0  9993,2 51718  53.2150 355.2721 0001725  60.1373 161.8769 15.08829684  1303,6917.9119999999975,95.438,540.97,538.5840000000002,0.0
51718.0,STARLINK-3546,PAYLOAD,2022-06-09 22:00:00,15.08812348,0.0001894,53.215,353.7774,52.9117,180.6913,0.0022167,0.00035141,0.0,0 STARLINK-3546,1 51718U 22016E   22160.91667824  .00035141  00000-0  22167-2 0  9991,2 51718  53.2150 353.7774 0001894  52.9117 180.6913 15.08812348  1305,6917.965,95.439,541.14,538.52,0.0
